OBJECT_NAME,OBJECT_ID,EPOCH,MEAN_MOTION,ECCENTRICITY,INCLINATION,RA_OF_ASC_NODE,ARG_OF_PERICENTER,MEAN_ANOMALY,EPHEMERIS_TYPE,CLASSIFICATION_TYPE,NORAD_CAT_ID,ELEMENT_SET_NO,REV_AT_EPOCH,BSTAR,MEAN_MOTION_DOT,MEAN_MOTION_DDOT
FLOCK 4BE-27,2024-149AX,2026-06-15T11:58:27.775776,15.34421636,.000258,97.3831,248.3489,325.4265,34.6810,0,U,60513,999,10188,.23954E-3,.7906E-4,0
FLOCK 4BE-9,2024-149AY,2026-06-15T11:11:44.678976,15.40751921,.0001407,97.3799,250.7208,308.9229,51.1892,0,U,60514,999,10205,.31619E-3,.12852E-3,0
FLOCK 4BE-6,2024-149BA,2026-06-15T04:03:14.252544,15.39528000,.00020733,97.3796,249.7828,307.1738,52.9318,0,U,60516,999,10196,.30573566E-3,.11932E-3,0
FLOCK 4BE-14,2024-149BB,2026-06-15T03:42:28.962432,15.40935468,.00030608,97.3704,249.9026,302.6924,57.4027,0,U,60517,999,10201,.3167781E-3,.12957E-3,0
FLOCK 4BE-1,2024-149BC,2026-06-15T11:55:31.448928,15.42552356,.0002834,97.3787,251.5191,297.9901,62.1059,0,U,60518,999,10211,.33574E-3,.145E-3,0
FLOCK 4BE-28,2024-149BD,2026-06-15T04:33:15.852384,15.44850682,.00029128,97.3757,251.9266,294.6347,65.4598,0,U,60519,999,10213,.31475523E-3,.14685E-3,0
IPERDRONE.0,2024-149BE,2026-06-15T12:25:48.047808,15.66440207,.0003485,97.3785,259.6476,229.6197,130.4759,0,U,60520,999,10265,.63351E-3,.66082E-3,0
TRANSPORTER-11 OBJECT BF,2024-149BF,2026-06-15T05:37:26.821344,15.83924345,.0005859,97.3762,262.0221,236.7295,123.3413,0,U,60521,999,10277,.91549E-3,.207442E-2,0
CONNECTA IOT-2,2024-149BG,2026-06-15T11:20:59.447328,15.23963046,.0005673,97.3843,244.6441,344.5469,15.5594,0,U,60522,999,10163,.16635E-3,.3955E-4,0
PTD-R (TYVAK-0127),2024-149BH,2026-06-15T02:37:46.472160,16.40205066,.00146647,97.3587,267.1148,263.0313,96.9318,0,U,60523,999,10311,.54306142E-3,.8494645E-1,.2524939E-5
CONNECTA IOT-4,2024-149BJ,2026-06-15T04:41:53.799648,15.42080038,.00039973,97.3806,250.5418,295.0614,65.0218,0,U,60524,999,10202,.37211614E-3,.15833E-3,0
ORESAT0.5,2024-149BK,2026-06-15T11:58:40.722816,15.45025760,.0004067,97.3729,252.4726,280.4990,79.5800,0,U,60525,999,10221,.35486E-3,.16673E-3,0
DEIMOS,2024-149BL,2026-06-15T12:43:43.243104,15.44173901,.0003995,97.3788,252.6459,289.7892,70.2925,0,U,60526,999,10219,.3507E-3,.16005E-3,0
CUAVA-2,2024-149BM,2026-06-15T04:39:23.785056,15.36078359,.00052533,97.3735,247.7096,304.3199,55.7547,0,U,60527,999,10186,.27788864E-3,.9689E-4,0
ERNST,2024-149BN,2026-06-15T11:30:28.268640,15.39172507,.0004485,97.3816,250.1859,306.8723,53.2111,0,U,60528,999,10201,.29493E-3,.11376E-3,0
TORO,2024-149BQ,2026-06-15T10:25:27.698304,14.96420778,.0001648,97.6791,241.1350,82.9952,277.1457,0,U,60530,999,9969,.17242E-3,.1898E-4,0
HYPSO-2,2024-149BR,2026-06-15T11:09:26.375040,14.98782059,.0000604,97.6816,242.7513,28.6187,331.5069,0,U,60531,999,9979,.16227E-3,.1896E-4,0
LEMU NGE,2024-149BS,2026-06-15T10:40:39.567360,14.94950609,.0002238,97.6848,241.4396,66.1716,293.9739,0,U,60532,999,9969,.1357E-3,.1425E-4,0
LEMUR-2-STELLA,2024-149BT,2026-06-15T11:50:17.288160,15.11780464,.0001702,97.6746,248.9404,96.4909,263.6515,0,U,60533,999,10024,.54209E-3,.919E-4,0
SATELIOT_2,2024-149BU,2026-06-15T03:41:41.263584,14.96354370,.00020624,97.6830,241.1469,98.0145,262.1311,0,U,60534,999,9966,.196817E-3,.217E-4,0
NIGHTJAR,2024-149BV,2026-06-15T10:57:31.389120,14.99011202,.0001451,97.6849,243.1880,77.2851,282.8534,0,U,60535,999,14261,.1619E-3,.1904E-4,0
LEMUR-2-MARHISYAM,2024-149BW,2026-06-15T11:21:03.267072,15.11232266,.0003381,97.6887,249.3674,120.1585,239.9980,0,U,60536,999,10022,.50917E-3,.8497E-4,0
SATELIOT_4,2024-149BX,2026-06-15T10:22:58.652256,14.96665509,.0003387,97.6743,240.9495,65.1768,294.9806,0,U,60537,999,9971,.17244E-3,.191E-4,0
PICO-02A021,2024-149BY,2026-06-14T23:16:31.336896,15.03232504,.00050001,97.6751,244.8195,33.5011,326.6529,0,U,60538,999,9940,.42629188E-3,.5713E-4,0
ICEYE-X43,2024-149BZ,2026-06-15T03:50:54.520800,14.99603670,.00081758,97.6783,243.1525,90.8145,269.4016,0,U,60539,999,9981,.2929746E-3,.3549E-4,0
HAWK-10A,2024-149CA,2026-06-15T03:55:45.483168,14.96510964,.00051002,97.6897,242.1098,84.0473,276.1330,0,U,60540,999,9968,.19211226E-3,.2126E-4,0
UMBRA-09,2024-149CB,2026-06-15T11:39:01.816416,15.18001234,.0000433,97.6976,253.6614,288.4883,71.6303,0,U,60541,999,10046,.67656E-3,.13701E-3,0
QPS-SAR-8 (AMATERU-IV),2024-149CC,2026-06-15T04:44:58.645536,15.04118762,.00049331,97.6669,245.3648,112.0970,248.0780,0,U,60542,999,9997,.27151314E-3,.3703E-4,0
ARCTIC WEATHER SATELLITE,2024-149CD,2026-06-15T11:23:22.447104,14.89804052,.0003632,97.6801,236.9891,107.1606,253.0010,0,U,60543,999,9904,.87167E-4,.783E-5,0
CAPELLA-15 (ACADIA-5),2024-149CE,2026-06-15T10:41:05.546112,14.92384147,.0004837,97.6772,239.3917,83.0069,277.1701,0,U,60544,999,9959,.26595E-3,.2667E-4,0
