FLOCK 4BE-27            
1 60513U 24149AX  26166.49893259  .00007906  00000+0  23954-3 0  9992
2 60513  97.3831 248.3489 0002580 325.4265  34.6810 15.34421636101883
FLOCK 4BE-9             
1 60514U 24149AY  26166.46648934  .00012852  00000+0  31619-3 0  9991
2 60514  97.3799 250.7208 0001407 308.9229  51.1892 15.40751921102050
FLOCK 4BE-6             
1 60516U 24149BA  26166.16891496  .00011932  00000+0  30574-3 0  9990
2 60516  97.3796 249.7828 0002073 307.1738  52.9318 15.39528000101960
FLOCK 4BE-14            
1 60517U 24149BB  26166.15450188  .00012957  00000+0  31678-3 0  9993
2 60517  97.3704 249.9026 0003060 302.6924  57.4027 15.40935468102012
FLOCK 4BE-1             
1 60518U 24149BC  26166.49689177  .00014500  00000+0  33574-3 0  9996
2 60518  97.3787 251.5191 0002834 297.9901  62.1059 15.42552356102117
FLOCK 4BE-28            
1 60519U 24149BD  26166.18976681  .00014685  00000+0  31476-3 0  9995
2 60519  97.3757 251.9266 0002912 294.6347  65.4598 15.44850682102138
IPERDRONE.0             
1 60520U 24149BE  26166.51791722  .00066082  00000+0  63351-3 0  9990
2 60520  97.3785 259.6476 0003485 229.6197 130.4759 15.66440207102657
TRANSPORTER-11 OBJECT BF
1 60521U 24149BF  26166.23433821  .00207442  00000+0  91549-3 0  9990
2 60521  97.3762 262.0221 0005859 236.7295 123.3413 15.83924345102774
CONNECTA IOT-2          
1 60522U 24149BG  26166.47291027  .00003955  00000+0  16635-3 0  9993
2 60522  97.3843 244.6441 0005673 344.5469  15.5594 15.23963046101631
PTD-R (TYVAK-0127)      
1 60523U 24149BH  26166.10956565  .08494645  25249-5  54306-3 0  9992
2 60523  97.3587 267.1148 0014664 263.0313  96.9318 16.40205066103117
CONNECTA IOT-4          
1 60524U 24149BJ  26166.19576157  .00015833  00000+0  37212-3 0  9996
2 60524  97.3806 250.5418 0003997 295.0614  65.0218 15.42080038102020
ORESAT0.5               
1 60525U 24149BK  26166.49908244  .00016673  00000+0  35486-3 0  9990
2 60525  97.3729 252.4726 0004067 280.4990  79.5800 15.45025760102214
DEIMOS                  
1 60526U 24149BL  26166.53036161  .00016005  00000+0  35070-3 0  9994
2 60526  97.3788 252.6459 0003995 289.7892  70.2925 15.44173901102190
CUAVA-2                 
1 60527U 24149BM  26166.19402529  .00009689  00000+0  27789-3 0  9990
2 60527  97.3735 247.7096 0005253 304.3199  55.7547 15.36078359101861
ERNST                   
1 60528U 24149BN  26166.47949385  .00011376  00000+0  29493-3 0  9998
2 60528  97.3816 250.1859 0004485 306.8723  53.2111 15.39172507102014
TORO                    
1 60530U 24149BQ  26166.43434836  .00001898  00000+0  17242-3 0  9994
2 60530  97.6791 241.1350 0001648  82.9952 277.1457 14.96420778 99699
HYPSO-2                 
1 60531U 24149BR  26166.46488860  .00001896  00000+0  16227-3 0  9994
2 60531  97.6816 242.7513 0000604  28.6187 331.5069 14.98782059 99794
LEMU NGE                
1 60532U 24149BS  26166.44490240  .00001425  00000+0  13570-3 0  9994
2 60532  97.6848 241.4396 0002238  66.1716 293.9739 14.94950609 99693
LEMUR-2-STELLA          
1 60533U 24149BT  26166.49325565  .00009190  00000+0  54209-3 0  9998
2 60533  97.6746 248.9404 0001702  96.4909 263.6515 15.11780464100248
SATELIOT_2              
1 60534U 24149BU  26166.15394981  .00002170  00000+0  19682-3 0  9997
2 60534  97.6830 241.1469 0002062  98.0145 262.1311 14.96354370 99665
NIGHTJAR                
1 60535U 24149BV  26166.45661330  .00001904  00000+0  16190-3 0  9991
2 60535  97.6849 243.1880 0001451  77.2851 282.8534 14.99011202142616
LEMUR-2-MARHISYAM       
1 60536U 24149BW  26166.47295448  .00008497  00000+0  50917-3 0  9996
2 60536  97.6887 249.3674 0003381 120.1585 239.9980 15.11232266100223
SATELIOT_4              
1 60537U 24149BX  26166.43262329  .00001910  00000+0  17244-3 0  9994
2 60537  97.6743 240.9495 0003387  65.1768 294.9806 14.96665509 99711
PICO-02A021             
1 60538U 24149BY  26165.96980714  .00005713  00000+0  42629-3 0  9997
2 60538  97.6751 244.8195 0005000  33.5011 326.6529 15.03232504 99400
ICEYE-X43               
1 60539U 24149BZ  26166.16035325  .00003549  00000+0  29297-3 0  9991
2 60539  97.6783 243.1525 0008175  90.8145 269.4016 14.99603670 99815
HAWK-10A                
1 60540U 24149CA  26166.16372087  .00002126  00000+0  19211-3 0  9997
2 60540  97.6897 242.1098 0005100  84.0473 276.1330 14.96510964 99680
UMBRA-09                
1 60541U 24149CB  26166.48543769  .00013701  00000+0  67656-3 0  9997
2 60541  97.6976 253.6614 0000433 288.4883  71.6303 15.18001234100466
QPS-SAR-8 (AMATERU-IV)  
1 60542U 24149CC  26166.19790099  .00003703  00000+0  27151-3 0  9993
2 60542  97.6669 245.3648 0004933 112.0970 248.0780 15.04118762 99971
ARCTIC WEATHER SATELLITE
1 60543U 24149CD  26166.47456536  .00000783  00000+0  87167-4 0  9999
2 60543  97.6801 236.9891 0003632 107.1606 253.0010 14.89804052 99048
CAPELLA-15 (ACADIA-5)   
1 60544U 24149CE  26166.44520308  .00002667  00000+0  26595-3 0  9996
2 60544  97.6772 239.3917 0004837  83.0069 277.1701 14.92384147 99591
